ONEWEB-0264             
1 48982U 21060R   25286.27018548  .00000126  00000+0  29535-3 0  9993
2 48982  87.8960 277.9867 0001614  91.1845 268.9470 13.16595383207107
ONEWEB-0266             
1 48984U 21060T   25286.21556552  .00000068  00000+0  14353-3 0  9998
2 48984  87.8976 277.9773 0002051  88.8388 271.2978 13.16593497207084
ONEWEB-0267             
1 48985U 21060U   25286.22662785 -.00000032  00000+0 -11852-3 0  9990
2 48985  87.8969 277.9770 0001714  95.7282 264.4045 13.16594455207094
ONEWEB-0268             
1 48986U 21060V   25286.27097396  .00000076  00000+0  16616-3 0  9995
2 48986  87.8971 277.9747 0001768  88.0468 272.0866 13.16593294207368
ONEWEB-0269             
1 48987U 21060W   25286.25198010  .00000077  00000+0  16652-3 0  9990
2 48987  87.8963 278.0064 0001827  82.5195 277.6143 13.16596363207130
ONEWEB-0270             
1 48988U 21060X   25286.26938781  .00000007  00000+0 -14970-4 0  9995
2 48988  87.8971 277.9768 0001930 101.9455 258.1893 13.16597457207174
ONEWEB-0271             
1 48989U 21060Y   25286.25672691  .00000058  00000+0  11781-3 0  9991
2 48989  87.8980 277.9635 0001749  97.0330 263.0999 13.16593907207171
ONEWEB-0272             
1 48990U 21060Z   25286.27889363  .00000109  00000+0  25197-3 0  9994
2 48990  87.8966 277.9844 0001654  93.3991 266.7329 13.16593793207121
ONEWEB-0273             
1 48991U 21060AA  25286.22504608 -.00000050  00000+0 -16517-3 0  9999
2 48991  87.8975 277.9852 0001913  94.2326 265.9024 13.16597535207098
ONEWEB-0274             
1 48992U 21060AB  25286.25039877  .00000083  00000+0  18220-3 0  9991
2 48992  87.8962 278.0094 0001487  85.7922 274.3379 13.16593740207134
ONEWEB-0275             
1 48993U 21060AC  25286.23931716  .00000052  00000+0  10152-3 0  9995
2 48993  87.8971 277.9765 0001775  89.8710 270.2624 13.16594367207064
ONEWEB-0276             
1 48994U 21060AD  25285.96856964  .00000108  00000+0  24995-3 0  9998
2 48994  87.8973 278.0291 0002018  92.3800 267.7562 13.16593561207048
ONEWEB-0277             
1 48995U 21060AE  25286.28525089  .00000081  00000+0  17828-3 0  9993
2 48995  87.8960 277.9962 0001612  92.7432 267.3884 13.16593139207079
ONEWEB-0278             
1 48996U 21060AF  25286.27573002  .00000140  00000+0  33381-3 0  9999
2 48996  87.8971 277.9643 0002120  87.8262 272.3112 13.16593810207200
ONEWEB-0279             
1 48997U 21060AG  25286.28362843  .00000092  00000+0  20783-3 0  9998
2 48997  87.8974 277.9581 0001632  97.0341 263.0976 13.16596430207131
ONEWEB-0280             
1 48998U 21060AH  25286.22268419 -.00000002  00000+0 -40135-4 0  9994
2 48998  87.8976 277.9783 0002201  95.1752 264.9630 13.16592437207068
