[{"OBJECT_NAME":"ONEWEB-0264","OBJECT_ID":"2021-060R","EPOCH":"2025-10-13T06:29:04.025472","MEAN_MOTION":13.16595383,"ECCENTRICITY":0.00016143,"INCLINATION":87.896,"RA_OF_ASC_NODE":277.9867,"ARG_OF_PERICENTER":91.1845,"MEAN_ANOMALY":268.947,"EPHEMERIS_TYPE":0,"CLASSIFICATION_TYPE":"U","NORAD_CAT_ID":48982,"ELEMENT_SET_NO":999,"REV_AT_EPOCH":20710,"BSTAR":0.00029535469,"MEAN_MOTION_DOT":1.26e-6,"MEAN_MOTION_DDOT":0},{"OBJECT_NAME":"ONEWEB-0266","OBJECT_ID":"2021-060T","EPOCH":"2025-10-13T05:10:24.860928","MEAN_MOTION":13.16593497,"ECCENTRICITY":0.00020513,"INCLINATION":87.8976,"RA_OF_ASC_NODE":277.9773,"ARG_OF_PERICENTER":88.8388,"MEAN_ANOMALY":271.2978,"EPHEMERIS_TYPE":0,"CLASSIFICATION_TYPE":"U","NORAD_CAT_ID":48984,"ELEMENT_SET_NO":999,"REV_AT_EPOCH":20708,"BSTAR":0.00014352613,"MEAN_MOTION_DOT":6.8e-7,"MEAN_MOTION_DDOT":0},{"OBJECT_NAME":"ONEWEB-0267","OBJECT_ID":"2021-060U","EPOCH":"2025-10-13T05:26:20.646240","MEAN_MOTION":13.16594455,"ECCENTRICITY":0.00017142,"INCLINATION":87.8969,"RA_OF_ASC_NODE":277.977,"ARG_OF_PERICENTER":95.7282,"MEAN_ANOMALY":264.4045,"EPHEMERIS_TYPE":0,"CLASSIFICATION_TYPE":"U","NORAD_CAT_ID":48985,"ELEMENT_SET_NO":999,"REV_AT_EPOCH":20709,"BSTAR":-0.00011851508,"MEAN_MOTION_DOT":-3.2e-7,"MEAN_MOTION_DDOT":0},{"OBJECT_NAME":"ONEWEB-0268","OBJECT_ID":"2021-060V","EPOCH":"2025-10-13T06:30:12.150144","MEAN_MOTION":13.16593294,"ECCENTRICITY":0.00017687,"INCLINATION":87.8971,"RA_OF_ASC_NODE":277.9747,"ARG_OF_PERICENTER":88.0468,"MEAN_ANOMALY":272.0866,"EPHEMERIS_TYPE":0,"CLASSIFICATION_TYPE":"U","NORAD_CAT_ID":48986,"ELEMENT_SET_NO":999,"REV_AT_EPOCH":20736,"BSTAR":0.00016616093,"MEAN_MOTION_DOT":7.6e-7,"MEAN_MOTION_DDOT":0},{"OBJECT_NAME":"ONEWEB-0269","OBJECT_ID":"2021-060W","EPOCH":"2025-10-13T06:02:51.080640","MEAN_MOTION":13.16596363,"ECCENTRICITY":0.00018275,"INCLINATION":87.8963,"RA_OF_ASC_NODE":278.0064,"ARG_OF_PERICENTER":82.5195,"MEAN_ANOMALY":277.6143,"EPHEMERIS_TYPE":0,"CLASSIFICATION_TYPE":"U","NORAD_CAT_ID":48987,"ELEMENT_SET_NO":999,"REV_AT_EPOCH":20713,"BSTAR":0.00016651791,"MEAN_MOTION_DOT":7.7e-7,"MEAN_MOTION_DDOT":0},{"OBJECT_NAME":"ONEWEB-0270","OBJECT_ID":"2021-060X","EPOCH":"2025-10-13T06:27:55.106784","MEAN_MOTION":13.16597457,"ECCENTRICITY":0.00019304,"INCLINATION":87.8971,"RA_OF_ASC_NODE":277.9768,"ARG_OF_PERICENTER":101.9455,"MEAN_ANOMALY":258.1893,"EPHEMERIS_TYPE":0,"CLASSIFICATION_TYPE":"U","NORAD_CAT_ID":48988,"ELEMENT_SET_NO":999,"REV_AT_EPOCH":20717,"BSTAR":-1.4969944e-5,"MEAN_MOTION_DOT":7.0e-8,"MEAN_MOTION_DDOT":0},{"OBJECT_NAME":"ONEWEB-0271","OBJECT_ID":"2021-060Y","EPOCH":"2025-10-13T06:09:41.205024","MEAN_MOTION":13.16593907,"ECCENTRICITY":0.0001749,"INCLINATION":87.898,"RA_OF_ASC_NODE":277.9635,"ARG_OF_PERICENTER":97.033,"MEAN_ANOMALY":263.0999,"EPHEMERIS_TYPE":0,"CLASSIFICATION_TYPE":"U","NORAD_CAT_ID":48989,"ELEMENT_SET_NO":999,"REV_AT_EPOCH":20717,"BSTAR":0.00011780924,"MEAN_MOTION_DOT":5.8e-7,"MEAN_MOTION_DDOT":0},{"OBJECT_NAME":"ONEWEB-0272","OBJECT_ID":"2021-060Z","EPOCH":"2025-10-13T06:41:36.409632","MEAN_MOTION":13.16593793,"ECCENTRICITY":0.00016548,"INCLINATION":87.8966,"RA_OF_ASC_NODE":277.9844,"ARG_OF_PERICENTER":93.3991,"MEAN_ANOMALY":266.7329,"EPHEMERIS_TYPE":0,"CLASSIFICATION_TYPE":"U","NORAD_CAT_ID":48990,"ELEMENT_SET_NO":999,"REV_AT_EPOCH":20712,"BSTAR":0.00025197263,"MEAN_MOTION_DOT":1.09e-6,"MEAN_MOTION_DDOT":0},{"OBJECT_NAME":"ONEWEB-0273","OBJECT_ID":"2021-060AA","EPOCH":"2025-10-13T05:24:03.981312","MEAN_MOTION":13.16597535,"ECCENTRICITY":0.00019135,"INCLINATION":87.8975,"RA_OF_ASC_NODE":277.9852,"ARG_OF_PERICENTER":94.2326,"MEAN_ANOMALY":265.9024,"EPHEMERIS_TYPE":0,"CLASSIFICATION_TYPE":"U","NORAD_CAT_ID":48991,"ELEMENT_SET_NO":999,"REV_AT_EPOCH":20709,"BSTAR":-0.00016516791,"MEAN_MOTION_DOT":-5.0e-7,"MEAN_MOTION_DDOT":0},{"OBJECT_NAME":"ONEWEB-0274","OBJECT_ID":"2021-060AB","EPOCH":"2025-10-13T06:00:34.453728","MEAN_MOTION":13.1659374,"ECCENTRICITY":0.00014878,"INCLINATION":87.8962,"RA_OF_ASC_NODE":278.0094,"ARG_OF_PERICENTER":85.7922,"MEAN_ANOMALY":274.3379,"EPHEMERIS_TYPE":0,"CLASSIFICATION_TYPE":"U","NORAD_CAT_ID":48992,"ELEMENT_SET_NO":999,"REV_AT_EPOCH":20713,"BSTAR":0.00018220437,"MEAN_MOTION_DOT":8.3e-7,"MEAN_MOTION_DDOT":0},{"OBJECT_NAME":"ONEWEB-0275","OBJECT_ID":"2021-060AC","EPOCH":"2025-10-13T05:44:37.002624","MEAN_MOTION":13.16594367,"ECCENTRICITY":0.00017752,"INCLINATION":87.8971,"RA_OF_ASC_NODE":277.9765,"ARG_OF_PERICENTER":89.871,"MEAN_ANOMALY":270.2624,"EPHEMERIS_TYPE":0,"CLASSIFICATION_TYPE":"U","NORAD_CAT_ID":48993,"ELEMENT_SET_NO":999,"REV_AT_EPOCH":20706,"BSTAR":0.00010151565,"MEAN_MOTION_DOT":5.2e-7,"MEAN_MOTION_DDOT":0},{"OBJECT_NAME":"ONEWEB-0276","OBJECT_ID":"2021-060AD","EPOCH":"2025-10-12T23:14:44.416896","MEAN_MOTION":13.16593561,"ECCENTRICITY":0.00020181,"INCLINATION":87.8973,"RA_OF_ASC_NODE":278.0291,"ARG_OF_PERICENTER":92.38,"MEAN_ANOMALY":267.7562,"EPHEMERIS_TYPE":0,"CLASSIFICATION_TYPE":"U","NORAD_CAT_ID":48994,"ELEMENT_SET_NO":999,"REV_AT_EPOCH":20704,"BSTAR":0.00024995228,"MEAN_MOTION_DOT":1.08e-6,"MEAN_MOTION_DDOT":0},{"OBJECT_NAME":"ONEWEB-0277","OBJECT_ID":"2021-060AE","EPOCH":"2025-10-13T06:50:45.676896","MEAN_MOTION":13.16593139,"ECCENTRICITY":0.0001612,"INCLINATION":87.896,"RA_OF_ASC_NODE":277.9962,"ARG_OF_PERICENTER":92.7432,"MEAN_ANOMALY":267.3884,"EPHEMERIS_TYPE":0,"CLASSIFICATION_TYPE":"U","NORAD_CAT_ID":48995,"ELEMENT_SET_NO":999,"REV_AT_EPOCH":20707,"BSTAR":0.00017828319,"MEAN_MOTION_DOT":8.1e-7,"MEAN_MOTION_DDOT":0},{"OBJECT_NAME":"ONEWEB-0278","OBJECT_ID":"2021-060AF","EPOCH":"2025-10-13T06:37:03.073728","MEAN_MOTION":13.1659381,"ECCENTRICITY":0.00021209,"INCLINATION":87.8971,"RA_OF_ASC_NODE":277.9643,"ARG_OF_PERICENTER":87.8262,"MEAN_ANOMALY":272.3112,"EPHEMERIS_TYPE":0,"CLASSIFICATION_TYPE":"U","NORAD_CAT_ID":48996,"ELEMENT_SET_NO":999,"REV_AT_EPOCH":20720,"BSTAR":0.00033381281,"MEAN_MOTION_DOT":1.4e-6,"MEAN_MOTION_DDOT":0},{"OBJECT_NAME":"ONEWEB-0279","OBJECT_ID":"2021-060AG","EPOCH":"2025-10-13T06:48:25.496352","MEAN_MOTION":13.1659643,"ECCENTRICITY":0.00016327,"INCLINATION":87.8974,"RA_OF_ASC_NODE":277.9581,"ARG_OF_PERICENTER":97.0341,"MEAN_ANOMALY":263.0976,"EPHEMERIS_TYPE":0,"CLASSIFICATION_TYPE":"U","NORAD_CAT_ID":48997,"ELEMENT_SET_NO":999,"REV_AT_EPOCH":20713,"BSTAR":0.00020783199,"MEAN_MOTION_DOT":9.2e-7,"MEAN_MOTION_DDOT":0},{"OBJECT_NAME":"ONEWEB-0280","OBJECT_ID":"2021-060AH","EPOCH":"2025-10-13T05:20:39.914016","MEAN_MOTION":13.16592437,"ECCENTRICITY":0.00022011,"INCLINATION":87.8976,"RA_OF_ASC_NODE":277.9783,"ARG_OF_PERICENTER":95.1752,"MEAN_ANOMALY":264.963,"EPHEMERIS_TYPE":0,"CLASSIFICATION_TYPE":"U","NORAD_CAT_ID":48998,"ELEMENT_SET_NO":999,"REV_AT_EPOCH":20706,"BSTAR":-4.0135371e-5,"MEAN_MOTION_DOT":-2.0e-8,"MEAN_MOTION_DDOT":0}]
